ICEYE-X39               
1 60546U 24149CG  26068.72048823  .00003515  00000+0  29320-3 0  9999
2 60546  97.6853 147.0953 0005274  52.5538 307.6164 14.99225125 85219
STARLINK-34452          
1 64425U 25129P   26068.44868680 -.00009917  00000+0 -82466-3 0  9992
2 64425  70.0016  74.9660 0003512 268.4080  91.6677 14.98320945 41251
